0 FENGYUN 1C DEB
1 30116U 99025RV  13282.82841215  .00001686  00000-0  99802-3 0  7409
2 30116 099.3837 040.4492 0029955 201.9553 286.1346 14.08936929345801
0 FENGYUN 1C DEB
1 30116U 99025RV  13284.09709779  .00002185  00000-0  12853-2 0  7414
2 30116 099.3840 041.7693 0030008 198.6809 240.8931 14.08940355345983
0 FENGYUN 1C DEB
1 30116U 99025RV  13285.29924384  .00002131  00000-0  12539-2 0  7421
2 30116 099.3831 043.0198 0030024 195.2283 218.5316 14.08943597346155
0 FENGYUN 1C DEB
1 30116U 99025RV  13287.15272855  .00002644  00000-0  15492-2 0  7438
2 30116 099.3837 044.9482 0030072 190.5301 259.3644 14.08949761346414
0 FENGYUN 1C DEB
1 30116U 99025RV  13288.85897655  .00002776  00000-0  16244-2 0  7440
2 30116 099.3845 046.7241 0030068 186.1443 273.5198 14.08962105346654
0 FENGYUN 1C DEB
1 30116U 99025RV  13290.13477671  .00002783  00000-0  16282-2 0  7457
2 30116 099.3850 048.0525 0030032 182.7640 264.5736 14.08968634346833
0 FENGYUN 1C DEB
1 30116U 99025RV  13291.26598869  .00002521  00000-0  14773-2 0  7469
2 30116 099.3851 049.2300 0030022 179.7783 242.2688 14.08975241346999
0 FENGYUN 1C DEB
1 30116U 99025RV  13292.33087231  .00002433  00000-0  14265-2 0  7473
2 30116 099.3850 050.3388 0030033 177.0211 243.5072 14.08980482347148
0 FENGYUN 1C DEB
1 30116U 99025RV  13293.83442294  .00002569  00000-0  15046-2 0  7482
2 30116 099.3847 051.9039 0030031 173.1200 309.7682 14.08987682347351
0 FENGYUN 1C DEB
1 30116U 99025RV  13295.31215434  .00002966  00000-0  17327-2 0  7497
2 30116 099.3842 053.4420 0029996 169.3782 245.0161 14.08993933347560
